HAWK-5A                 
1 52757U 22057AB  26166.43121770  .00015990  00000+0  27355-3 0  9996
2 52757  97.6599 325.1651 0005682  84.3678 275.8222 15.51337988226078
HAWK-6B                 
1 55324U 23011A   26165.95348958  .00004881  00000+0  21180-3 0  9992
2 55324  40.4995   5.1004 0002754 346.5783  13.4953 15.22916591187503
HAWK-6C                 
1 55326U 23011C   26165.95282221  .00004190  00000+0  18302-3 0  9999
2 55326  40.4989   1.9422 0003596 337.2013  22.8636 15.22913356187513
HAWK-6A                 
1 55327U 23011D   26165.95287757  .00004586  00000+0  19954-3 0  9992
2 55327  40.4995   3.5673 0003328 334.9112  25.1535 15.22913773187511
HAWK-7A                 
1 56191U 23054P   26166.60352669  .00004844  00000+0  18353-3 0  9996
2 56191  97.2706  53.9814 0004417  60.9797 299.1885 15.27347222176785
HAWK-7B                 
1 56193U 23054R   26166.60344033  .00005040  00000+0  19088-3 0  9999
2 56193  97.2732  52.2447 0003786  71.4427 288.7223 15.27345514176787
HAWK-7C                 
1 56200U 23054Y   26166.60333102  .00004841  00000+0  18346-3 0  9997
2 56200  97.2709  53.0140 0003777  63.5170 296.6456 15.27347097176780
