OBJECT_NAME,OBJECT_ID,EPOCH,MEAN_MOTION,ECCENTRICITY,INCLINATION,RA_OF_ASC_NODE,ARG_OF_PERICENTER,MEAN_ANOMALY,EPHEMERIS_TYPE,CLASSIFICATION_TYPE,NORAD_CAT_ID,ELEMENT_SET_NO,REV_AT_EPOCH,BSTAR,MEAN_MOTION_DOT,MEAN_MOTION_DDOT
HAWK-5A,2022-057AB,2026-06-15T10:20:57.209280,15.51337988,.00056827,97.6599,325.1651,84.3678,275.8222,0,U,52757,999,22607,.2735514E-3,.1599E-3,0
HAWK-6B,2023-011A,2026-06-14T22:53:01.499712,15.22916591,.00027545,40.4995,5.1004,346.5783,13.4953,0,U,55324,999,18750,.21179999E-3,.4881E-4,0
HAWK-6C,2023-011C,2026-06-14T22:52:03.838944,15.22913356,.00035966,40.4989,1.9422,337.2013,22.8636,0,U,55326,999,18751,.1830179E-3,.419E-4,0
HAWK-6A,2023-011D,2026-06-14T22:52:08.622048,15.22913773,.00033289,40.4995,3.5673,334.9112,25.1535,0,U,55327,999,18751,.19953935E-3,.4586E-4,0
HAWK-7A,2023-054P,2026-06-15T14:29:04.706016,15.27347222,.00044175,97.2706,53.9814,60.9797,299.1885,0,U,56191,999,17678,.18353159E-3,.4844E-4,0
HAWK-7B,2023-054R,2026-06-15T14:28:57.244512,15.27345514,.0003786,97.2732,52.2447,71.4427,288.7223,0,U,56193,999,17678,.19087617E-3,.504E-4,0
HAWK-7C,2023-054Y,2026-06-15T14:28:47.800128,15.27347097,.00037772,97.2709,53.0140,63.5170,296.6456,0,U,56200,999,17678,.18346463E-3,.4841E-4,0
